[{"OBJECT_NAME":"STARLINK-32353","OBJECT_ID":"2024-187P","EPOCH":"2026-03-09T10:07:45.453504","MEAN_MOTION":15.30205817,"ECCENTRICITY":0.00011866,"INCLINATION":53.1583,"RA_OF_ASC_NODE":66.1995,"ARG_OF_PERICENTER":101.2461,"MEAN_ANOMALY":258.8673,"EPHEMERIS_TYPE":0,"CLASSIFICATION_TYPE":"U","NORAD_CAT_ID":61587,"ELEMENT_SET_NO":999,"REV_AT_EPOCH":7898,"BSTAR":0.00061661825,"MEAN_MOTION_DOT":0.00017951,"MEAN_MOTION_DDOT":0},{"OBJECT_NAME":"HERMES-3","OBJECT_ID":"2025-052BR","EPOCH":"2026-03-09T22:30:01.073952","MEAN_MOTION":15.30039786,"ECCENTRICITY":0.00079928,"INCLINATION":97.3987,"RA_OF_ASC_NODE":324.6131,"ARG_OF_PERICENTER":112.9583,"MEAN_ANOMALY":247.2502,"EPHEMERIS_TYPE":0,"CLASSIFICATION_TYPE":"U","NORAD_CAT_ID":63835,"ELEMENT_SET_NO":999,"REV_AT_EPOCH":5486,"BSTAR":0.0006995793,"MEAN_MOTION_DOT":0.00020316,"MEAN_MOTION_DDOT":0}]
